{
  "norad_id": 48143,
  "name": "STARLINK-2486",
  "history": [
    {
      "epoch": "2026-03-28T18:48:00.065376Z",
      "apogee_km": 473.5291176884102,
      "perigee_km": 471.64270262786886,
      "latitude_deg": -4.6062110099995925e-06,
      "longitude_deg": -95.87630102300761,
      "height_km": 473.9650483430103,
      "semi_major_axis_km": 6850.72291015814,
      "eccentricity": 0.00013768,
      "inclination_deg": 53.1632,
      "raan_deg": 12.3228,
      "arg_perigee_deg": 120.6096,
      "mean_anomaly_deg": 239.5041,
      "mean_motion_rev_day": 15.31080971
    },
    {
      "epoch": "2026-03-29T01:03:59.463072Z",
      "apogee_km": 473.4843878692336,
      "perigee_km": 471.51140501905775,
      "latitude_deg": 3.208585073360728e-05,
      "longitude_deg": 168.65367986489022,
      "height_km": 473.99448086249015,
      "semi_major_axis_km": 6850.634896444146,
      "eccentricity": 0.000144,
      "inclination_deg": 53.1634,
      "raan_deg": 11.1076,
      "arg_perigee_deg": 127.2878,
      "mean_anomaly_deg": 232.8255,
      "mean_motion_rev_day": 15.31110477
    }
  ]
}